{
  "norad_id": 43002,
  "name": "BEIDOU-3 M2",
  "history": [
    {
      "epoch": "2026-03-25T07:21:19.769184",
      "apogee_km": 21556.05224100811,
      "perigee_km": 21500.138197883938,
      "latitude_deg": 10.607871855414578,
      "longitude_deg": 21.621965760132298,
      "semi_major_axis_km": 27906.232219446025,
      "eccentricity": 0.00100182,
      "inclination_deg": 56.6199,
      "raan_deg": 65.8818,
      "arg_perigee_deg": 332.3985,
      "mean_anomaly_deg": 27.5434,
      "mean_motion_rev_day": 1.86230563
    }
  ]
}